{"type": "FeatureCollection", "features": [ {"type": "Feature", "properties": {"norad_id": 67051, "name": "STARLINK-35706", "group": "last-30-days", "lat": 40.34151263386724, "lon": 158.96047091284126, "alt_km": 375.98474760024874, "timestamp": "2025-12-27T07:26:23.948806+00:00", "meta": {"OBJECT_NAME": "STARLINK-35706", "OBJECT_ID": "2025-294X", "EPOCH": "2025-12-26T22:00:01.999584", "MEAN_MOTION": 15.63851893, "ECCENTRICITY": 0.00016229, "INCLINATION": 42.9998, "RA_OF_ASC_NODE": 95.6002, "ARG_OF_PERICENTER": 283.5188, "MEAN_ANOMALY": 92.4695, "EPHEMERIS_TYPE": 0, "CLASSIFICATION_TYPE": "U", "NORAD_CAT_ID": 67051, "ELEMENT_SET_NO": 999, "REV_AT_EPOCH": 258, "BSTAR": -0.02313334, "MEAN_MOTION_DOT": -0.01967528, "MEAN_MOTION_DDOT": 0}, "tle": {"line1": "1 67051U 25294X   25360.91668981 -.01967528  00000+0 -23133-1 0  9997", "line2": "2 67051  42.9998  95.6002 0001622 283.5188  92.4695 15.63851893  2589"}}, "geometry": {"type": "Point", "coordinates": [158.96047091284126, 40.34151263386724]}}, {"type": "Feature", "properties": {"norad_id": 67052, "name": "STARLINK-35720", "group": "last-30-days", "lat": 40.86259035402946, "lon": 161.43150418969486, "alt_km": 375.94065313668216, "timestamp": "2025-12-27T07:26:23.948822+00:00", "meta": {"OBJECT_NAME": "STARLINK-35720", "OBJECT_ID": "2025-294Y", "EPOCH": "2025-12-26T22:00:01.999584", "MEAN_MOTION": 15.6385152, "ECCENTRICITY": 0.00016276, "INCLINATION": 43, "RA_OF_ASC_NODE": 95.5951, "ARG_OF_PERICENTER": 283.6326, "MEAN_ANOMALY": 94.3068, "EPHEMERIS_TYPE": 0, "CLASSIFICATION_TYPE": "U", "NORAD_CAT_ID": 67052, "ELEMENT_SET_NO": 999, "REV_AT_EPOCH": 257, "BSTAR": -0.023169271, "MEAN_MOTION_DOT": -0.01970194, "MEAN_MOTION_DDOT": 0}, "tle": {"line1": "1 67052U 25294Y   25360.91668981 -.01970194  00000+0 -23169-1 0  9990", "line2": "2 67052  43.0000  95.5951 0001627 283.6326  94.3068 15.63851520  2579"}}, "geometry": {"type": "Point", "coordinates": [161.43150418969486, 40.86259035402946]}}, {"type": "Feature", "properties": {"norad_id": 67053, "name": "STARLINK-35739", "group": "last-30-days", "lat": 41.350317221227655, "lon": 164.0569425145422, "alt_km": 375.9620642508762, "timestamp": "2025-12-27T07:26:23.948834+00:00", "meta": {"OBJECT_NAME": "STARLINK-35739", "OBJECT_ID": "2025-294Z", "EPOCH": "2025-12-26T22:00:01.999584", "MEAN_MOTION": 15.63840282, "ECCENTRICITY": 0.00016668, "INCLINATION": 43.0003, "RA_OF_ASC_NODE": 95.5899, "ARG_OF_PERICENTER": 282.9526, "MEAN_ANOMALY": 97.0428, "EPHEMERIS_TYPE": 0, "CLASSIFICATION_TYPE": "U", "NORAD_CAT_ID": 67053, "ELEMENT_SET_NO": 999, "REV_AT_EPOCH": 222, "BSTAR": -0.023196776, "MEAN_MOTION_DOT": -0.01971502, "MEAN_MOTION_DDOT": 0}, "tle": {"line1": "1 67053U 25294Z   25360.91668981 -.01971502  00000+0 -23197-1 0  9996", "line2": "2 67053  43.0003  95.5899 0001666 282.9526  97.0428 15.63840282  2226"}}, "geometry": {"type": "Point", "coordinates": [164.0569425145422, 41.350317221227655]}}, {"type": "Feature", "properties": {"norad_id": 67054, "name": "STARLINK-35754", "group": "last-30-days", "lat": 41.79088054643117, "lon": 166.81745228514177, "alt_km": 375.9276245753272, "timestamp": "2025-12-27T07:26:23.948844+00:00", "meta": {"OBJECT_NAME": "STARLINK-35754", "OBJECT_ID": "2025-294AA", "EPOCH": "2025-12-26T22:00:01.999584", "MEAN_MOTION": 15.63815997, "ECCENTRICITY": 0.00016216, "INCLINATION": 42.9998, "RA_OF_ASC_NODE": 95.5846, "ARG_OF_PERICENTER": 284.3249, "MEAN_ANOMALY": 97.8139, "EPHEMERIS_TYPE": 0, "CLASSIFICATION_TYPE": "U", "NORAD_CAT_ID": 67054, "ELEMENT_SET_NO": 999, "REV_AT_EPOCH": 238, "BSTAR": -0.02314084, "MEAN_MOTION_DOT": -0.01965606, "MEAN_MOTION_DDOT": 0}, "tle": {"line1": "1 67054U 25294AA  25360.91668981 -.01965606  00000+0 -23141-1 0  9994", "line2": "2 67054  42.9998  95.5846 0001621 284.3249  97.8139 15.63815997  2388"}}, "geometry": {"type": "Point", "coordinates": [166.81745228514177, 41.79088054643117]}}, {"type": "Feature", "properties": {"norad_id": 67055, "name": "STARLINK-35790", "group": "last-30-days", "lat": 42.15912639177175, "lon": 169.5678344477879, "alt_km": 375.9880864335146, "timestamp": "2025-12-27T07:26:23.948856+00:00", "meta": {"OBJECT_NAME": "STARLINK-35790", "OBJECT_ID": "2025-294AB", "EPOCH": "2025-12-26T22:00:01.999584", "MEAN_MOTION": 15.63802804, "ECCENTRICITY": 0.00016456, "INCLINATION": 42.9996, "RA_OF_ASC_NODE": 95.5786, "ARG_OF_PERICENTER": 282.1703, "MEAN_ANOMALY": 102.0705, "EPHEMERIS_TYPE": 0, "CLASSIFICATION_TYPE": "U", "NORAD_CAT_ID": 67055, "ELEMENT_SET_NO": 999, "REV_AT_EPOCH": 258, "BSTAR": -0.023207633, "MEAN_MOTION_DOT": -0.01969701, "MEAN_MOTION_DDOT": 0}, "tle": {"line1": "1 67055U 25294AB  25360.91668981 -.01969701  00000+0 -23208-1 0  9999", "line2": "2 67055  42.9996  95.5786 0001645 282.1703 102.0705 15.63802804  2580"}}, "geometry": {"type": "Point", "coordinates": [169.5678344477879, 42.15912639177175]}}, {"type": "Feature", "properties": {"norad_id": 67056, "name": "STARLINK-36143", "group": "last-30-days", "lat": 42.83835086218267, "lon": 177.53760079317738, "alt_km": 375.9444372554699, "timestamp": "2025-12-27T07:26:23.948868+00:00", "meta": {"OBJECT_NAME": "STARLINK-36143", "OBJECT_ID": "2025-294AC", "EPOCH": "2025-12-26T22:00:01.999584", "MEAN_MOTION": 15.63786292, "ECCENTRICITY": 0.00016328, "INCLINATION": 42.9997, "RA_OF_ASC_NODE": 95.5632, "ARG_OF_PERICENTER": 285.6101, "MEAN_ANOMALY": 104.5707, "EPHEMERIS_TYPE": 0, "CLASSIFICATION_TYPE": "U", "NORAD_CAT_ID": 67056, "ELEMENT_SET_NO": 999, "REV_AT_EPOCH": 258, "BSTAR": -0.023220081, "MEAN_MOTION_DOT": -0.01969477, "MEAN_MOTION_DDOT": 0}, "tle": {"line1": "1 67056U 25294AC  25360.91668981 -.01969477  00000+0 -23220-1 0  9994", "line2": "2 67056  42.9997  95.5632 0001632 285.6101 104.5707 15.63786292  2589"}}, "geometry": {"type": "Point", "coordinates": [177.53760079317738, 42.83835086218267]}}, {"type": "Feature", "properties": {"norad_id": 67057, "name": "STARLINK-36141", "group": "last-30-days", "lat": 42.6708515504094, "lon": 174.82323471323386, "alt_km": 375.912115502887, "timestamp": "2025-12-27T07:26:23.948878+00:00", "meta": {"OBJECT_NAME": "STARLINK-36141", "OBJECT_ID": "2025-294AD", "EPOCH": "2025-12-26T22:00:01.999584", "MEAN_MOTION": 15.63795168, "ECCENTRICITY": 0.00016157, "INCLINATION": 42.9997, "RA_OF_ASC_NODE": 95.5688, "ARG_OF_PERICENTER": 285.7932, "MEAN_ANOMALY": 102.3734, "EPHEMERIS_TYPE": 0, "CLASSIFICATION_TYPE": "U", "NORAD_CAT_ID": 67057, "ELEMENT_SET_NO": 999, "REV_AT_EPOCH": 250, "BSTAR": -0.023219822, "MEAN_MOTION_DOT": -0.01970059, "MEAN_MOTION_DDOT": 0}, "tle": {"line1": "1 67057U 25294AD  25360.91668981 -.01970059  00000+0 -23220-1 0  9993", "line2": "2 67057  42.9997  95.5688 0001615 285.7932 102.3734 15.63795168  2505"}}, "geometry": {"type": "Point", "coordinates": [174.82323471323386, 42.6708515504094]}}, {"type": "Feature", "properties": {"norad_id": 67058, "name": "STARLINK-35767", "group": "last-30-days", "lat": 42.447555436650156, "lon": 172.20641993953845, "alt_km": 375.89354055038166, "timestamp": "2025-12-27T07:26:23.948890+00:00", "meta": {"OBJECT_NAME": "STARLINK-35767", "OBJECT_ID": "2025-294AE", "EPOCH": "2025-12-26T22:00:01.999584", "MEAN_MOTION": 15.63794738, "ECCENTRICITY": 0.00015509, "INCLINATION": 43, "RA_OF_ASC_NODE": 95.5738, "ARG_OF_PERICENTER": 284.6941, "MEAN_ANOMALY": 101.5307, "EPHEMERIS_TYPE": 0, "CLASSIFICATION_TYPE": "U", "NORAD_CAT_ID": 67058, "ELEMENT_SET_NO": 999, "REV_AT_EPOCH": 238, "BSTAR": -0.023195795, "MEAN_MOTION_DOT": -0.01968187, "MEAN_MOTION_DDOT": 0}, "tle": {"line1": "1 67058U 25294AE  25360.91668981 -.01968187  00000+0 -23196-1 0  9995", "line2": "2 67058  43.0000  95.5738 0001550 284.6941 101.5307 15.63794738  2380"}}, "geometry": {"type": "Point", "coordinates": [172.20641993953845, 42.447555436650156]}}, {"type": "Feature", "properties": {"norad_id": 67059, "name": "HULIANWANG DIGUI-119", "group": "last-30-days", "lat": 47.28641001132104, "lon": 65.37484237926532, "alt_km": 813.0251683720362, "timestamp": "2025-12-27T07:26:23.948901+00:00", "meta": {"OBJECT_NAME": "HULIANWANG DIGUI-119", "OBJECT_ID": "2025-295A", "EPOCH": "2025-12-26T22:31:29.520768", "MEAN_MOTION": 14.24617951, "ECCENTRICITY": 0.00140035, "INCLINATION": 50.0049, "RA_OF_ASC_NODE": 312.3518, "ARG_OF_PERICENTER": 296.521, "MEAN_ANOMALY": 63.4267, "EPHEMERIS_TYPE": 0, "CLASSIFICATION_TYPE": "U", "NORAD_CAT_ID": 67059, "ELEMENT_SET_NO": 999, "REV_AT_EPOCH": 214, "BSTAR": 0.00010384543, "MEAN_MOTION_DOT": 8.3e-07, "MEAN_MOTION_DDOT": 0}, "tle": {"line1": "1 67059U 25295A   25360.93853612  .00000083  00000+0  10385-3 0  9993", "line2": "2 67059  50.0049 312.3518 0014003 296.5210  63.4267 14.24617951  2148"}}, "geometry": {"type": "Point", "coordinates": [65.37484237926532, 47.28641001132104]}}, {"type": "Feature", "properties": {"norad_id": 67060, "name": "HULIANWANG DIGUI-120", "group": "last-30-days", "lat": 27.824610732888164, "lon": 104.4147838940415, "alt_km": 811.1449876781971, "timestamp": "2025-12-27T07:26:23.948911+00:00", "meta": {"OBJECT_NAME": "HULIANWANG DIGUI-120", "OBJECT_ID": "2025-295B", "EPOCH": "2025-12-23T18:39:46.505376", "MEAN_MOTION": 14.25711377, "ECCENTRICITY": 0.0013178, "INCLINATION": 50.0058, "RA_OF_ASC_NODE": 325.6343, "ARG_OF_PERICENTER": 286.4479, "MEAN_ANOMALY": 73.4987, "EPHEMERIS_TYPE": 0, "CLASSIFICATION_TYPE": "U", "NORAD_CAT_ID": 67060, "ELEMENT_SET_NO": 999, "REV_AT_EPOCH": 169, "BSTAR": 6.7209387e-05, "MEAN_MOTION_DOT": 1e-08, "MEAN_MOTION_DDOT": 0}, "tle": {"line1": "1 67060U 25295B   25357.77762159  .00000001  00000+0  67209-4 0  9996", "line2": "2 67060  50.0058 325.6343 0013178 286.4479  73.4987 14.25711377  1697"}}, "geometry": {"type": "Point", "coordinates": [104.4147838940415, 27.824610732888164]}}]}